SES-6                   
1 39172U 13026A   26061.72257455 -.00000278  00000+0  00000+0 0  9992
2 39172   0.0697 286.9218 0001855  55.2279  37.9463  1.00272390 46658
IRNSS-1A                
1 39199U 13034A   26061.59877939  .00000079  00000+0  00000+0 0  9998
2 39199  35.4853  65.3923 0017849 190.7042 174.8535  1.00269524 46306
MUOS-2                  
1 39206U 13036A   26061.82267098 -.00000026  00000+0  00000+0 0  9997
2 39206   4.7826  45.3199 0053185 184.1347  39.2956  1.00273238 46123
ALPHASAT                
1 39215U 13038A   26061.16514515  .00000118  00000+0  00000+0 0  9996
2 39215   2.9811   2.1998 0001906 349.6196 252.4564  1.00270261 42942
INSAT-3D                
1 39216U 13038B   26061.59628306 -.00000356  00000+0  00000+0 0  9993
2 39216   1.6508  83.9377 0002164 236.3244 184.2293  1.00269239 46019
WGS F6 (USA 244)        
1 39222U 13041A   26061.70394112  .00000072  00000+0  00000+0 0  9996
2 39222   0.0079 142.2455 0001522 181.3829 315.0491  1.00272249 44997
ES'HAIL 1               
1 39233U 13044A   26061.72035651  .00000126  00000+0  00000+0 0  9993
2 39233   0.0550 343.9207 0003096 358.0151 103.3720  1.00270080 45565
GSAT-7                  
1 39234U 13044B   26061.84072336 -.00000093  00000+0  00000+0 0  9992
2 39234   0.0173 111.8464 0006725 180.7266 244.6863  1.00271249 44196
AMOS-4                  
1 39237U 13045A   26061.73794943 -.00000009  00000+0  00000+0 0  9996
2 39237   0.0119 176.6128 0003301 171.7170 142.8333  1.00271896 45893
AEHF-3 (USA 246)        
1 39256U 13050A   26061.63483289  .00000015  00000+0  00000+0 0  9996
2 39256   5.0310  68.1674 0091773 187.8696   8.6434  1.00272337 44581
ASTRA 2E                
1 39285U 13056A   26061.73644128  .00000134  00000+0  00000+0 0  9998
2 39285   0.0672  27.3430 0002200 307.1895 119.5608  1.00271256 45351
FM-6                    
1 39360U 13058A   26061.70775449 -.00000033  00000+0  00000+0 0  9991
2 39360   0.0204 131.0350 0003055  50.9706 117.0839  1.00270617 45004
RADUGA-1M 3             
1 39375U 13062A   26061.73765463  .00000139  00000+0  00000+0 0  9996
2 39375   5.6919  73.7005 0000262 248.5403 138.8024  1.00272357 45043
SES-8                   
1 39460U 13071A   26061.61318672 -.00000285  00000+0  00000+0 0  9997
2 39460   0.0622 272.7609 0001676  99.9747 103.3736  1.00267709 43374
INMARSAT 5-F1           
1 39476U 13073A   26061.62137477  .00000012  00000+0  00000+0 0  9996
2 39476   0.0177 123.0331 0000656 209.2148 114.3969  1.00270327 44500
TKSAT-1 (TUPAC KATARI)  
1 39481U 13075A   26061.64219959 -.00000212  00000+0  00000+0 0  9995
2 39481   0.0342  85.8340 0002884 248.5797 329.9833  1.00271747 44530
EXPRESS-AM5             
1 39487U 13077A   26061.86859247  .00000000  00000+0  00000+0 0  9991
2 39487   0.0226 155.6521 0002481 172.9844 284.7440  1.00269434 45296
