[{"OBJECT_NAME":"SES-6","OBJECT_ID":"2013-026A","EPOCH":"2026-03-02T17:20:30.441120","MEAN_MOTION":1.0027239,"ECCENTRICITY":0.0001855,"INCLINATION":0.0697,"RA_OF_ASC_NODE":286.9218,"ARG_OF_PERICENTER":55.2279,"MEAN_ANOMALY":37.9463,"EPHEMERIS_TYPE":0,"CLASSIFICATION_TYPE":"U","NORAD_CAT_ID":39172,"ELEMENT_SET_NO":999,"REV_AT_EPOCH":4665,"BSTAR":0,"MEAN_MOTION_DOT":-2.78e-6,"MEAN_MOTION_DDOT":0},{"OBJECT_NAME":"IRNSS-1A","OBJECT_ID":"2013-034A","EPOCH":"2026-03-02T14:22:14.539296","MEAN_MOTION":1.00269524,"ECCENTRICITY":0.0017849,"INCLINATION":35.4853,"RA_OF_ASC_NODE":65.3923,"ARG_OF_PERICENTER":190.7042,"MEAN_ANOMALY":174.8535,"EPHEMERIS_TYPE":0,"CLASSIFICATION_TYPE":"U","NORAD_CAT_ID":39199,"ELEMENT_SET_NO":999,"REV_AT_EPOCH":4630,"BSTAR":0,"MEAN_MOTION_DOT":7.9e-7,"MEAN_MOTION_DDOT":0},{"OBJECT_NAME":"MUOS-2","OBJECT_ID":"2013-036A","EPOCH":"2026-03-02T19:44:38.772672","MEAN_MOTION":1.00273238,"ECCENTRICITY":0.0053185,"INCLINATION":4.7826,"RA_OF_ASC_NODE":45.3199,"ARG_OF_PERICENTER":184.1347,"MEAN_ANOMALY":39.2956,"EPHEMERIS_TYPE":0,"CLASSIFICATION_TYPE":"U","NORAD_CAT_ID":39206,"ELEMENT_SET_NO":999,"REV_AT_EPOCH":4612,"BSTAR":0,"MEAN_MOTION_DOT":-2.6e-7,"MEAN_MOTION_DDOT":0},{"OBJECT_NAME":"ALPHASAT","OBJECT_ID":"2013-038A","EPOCH":"2026-03-02T03:57:48.540960","MEAN_MOTION":1.00270261,"ECCENTRICITY":0.00019061,"INCLINATION":2.9811,"RA_OF_ASC_NODE":2.1998,"ARG_OF_PERICENTER":349.6196,"MEAN_ANOMALY":252.4564,"EPHEMERIS_TYPE":0,"CLASSIFICATION_TYPE":"U","NORAD_CAT_ID":39215,"ELEMENT_SET_NO":999,"REV_AT_EPOCH":4294,"BSTAR":0,"MEAN_MOTION_DOT":1.18e-6,"MEAN_MOTION_DDOT":0},{"OBJECT_NAME":"INSAT-3D","OBJECT_ID":"2013-038B","EPOCH":"2026-03-02T14:18:38.856384","MEAN_MOTION":1.00269239,"ECCENTRICITY":0.0002164,"INCLINATION":1.6508,"RA_OF_ASC_NODE":83.9377,"ARG_OF_PERICENTER":236.3244,"MEAN_ANOMALY":184.2293,"EPHEMERIS_TYPE":0,"CLASSIFICATION_TYPE":"U","NORAD_CAT_ID":39216,"ELEMENT_SET_NO":999,"REV_AT_EPOCH":4601,"BSTAR":0,"MEAN_MOTION_DOT":-3.56e-6,"MEAN_MOTION_DDOT":0},{"OBJECT_NAME":"WGS F6 (USA 244)","OBJECT_ID":"2013-041A","EPOCH":"2026-03-02T16:53:40.512768","MEAN_MOTION":1.00272249,"ECCENTRICITY":0.0001522,"INCLINATION":0.0079,"RA_OF_ASC_NODE":142.2455,"ARG_OF_PERICENTER":181.3829,"MEAN_ANOMALY":315.0491,"EPHEMERIS_TYPE":0,"CLASSIFICATION_TYPE":"U","NORAD_CAT_ID":39222,"ELEMENT_SET_NO":999,"REV_AT_EPOCH":4499,"BSTAR":0,"MEAN_MOTION_DOT":7.2e-7,"MEAN_MOTION_DDOT":0},{"OBJECT_NAME":"ES'HAIL 1","OBJECT_ID":"2013-044A","EPOCH":"2026-03-02T17:17:18.802464","MEAN_MOTION":1.0027008,"ECCENTRICITY":0.0003096,"INCLINATION":0.055,"RA_OF_ASC_NODE":343.9207,"ARG_OF_PERICENTER":358.0151,"MEAN_ANOMALY":103.372,"EPHEMERIS_TYPE":0,"CLASSIFICATION_TYPE":"U","NORAD_CAT_ID":39233,"ELEMENT_SET_NO":999,"REV_AT_EPOCH":4556,"BSTAR":0,"MEAN_MOTION_DOT":1.26e-6,"MEAN_MOTION_DDOT":0},{"OBJECT_NAME":"GSAT-7","OBJECT_ID":"2013-044B","EPOCH":"2026-03-02T20:10:38.498304","MEAN_MOTION":1.00271249,"ECCENTRICITY":0.0006725,"INCLINATION":0.0173,"RA_OF_ASC_NODE":111.8464,"ARG_OF_PERICENTER":180.7266,"MEAN_ANOMALY":244.6863,"EPHEMERIS_TYPE":0,"CLASSIFICATION_TYPE":"U","NORAD_CAT_ID":39234,"ELEMENT_SET_NO":999,"REV_AT_EPOCH":4419,"BSTAR":0,"MEAN_MOTION_DOT":-9.3e-7,"MEAN_MOTION_DDOT":0},{"OBJECT_NAME":"AMOS-4","OBJECT_ID":"2013-045A","EPOCH":"2026-03-02T17:42:38.830752","MEAN_MOTION":1.00271896,"ECCENTRICITY":0.0003301,"INCLINATION":0.0119,"RA_OF_ASC_NODE":176.6128,"ARG_OF_PERICENTER":171.717,"MEAN_ANOMALY":142.8333,"EPHEMERIS_TYPE":0,"CLASSIFICATION_TYPE":"U","NORAD_CAT_ID":39237,"ELEMENT_SET_NO":999,"REV_AT_EPOCH":4589,"BSTAR":0,"MEAN_MOTION_DOT":-9.0e-8,"MEAN_MOTION_DDOT":0},{"OBJECT_NAME":"AEHF-3 (USA 246)","OBJECT_ID":"2013-050A","EPOCH":"2026-03-02T15:14:09.561696","MEAN_MOTION":1.00272337,"ECCENTRICITY":0.0091773,"INCLINATION":5.031,"RA_OF_ASC_NODE":68.1674,"ARG_OF_PERICENTER":187.8696,"MEAN_ANOMALY":8.6434,"EPHEMERIS_TYPE":0,"CLASSIFICATION_TYPE":"U","NORAD_CAT_ID":39256,"ELEMENT_SET_NO":999,"REV_AT_EPOCH":4458,"BSTAR":0,"MEAN_MOTION_DOT":1.5e-7,"MEAN_MOTION_DDOT":0},{"OBJECT_NAME":"ASTRA 2E","OBJECT_ID":"2013-056A","EPOCH":"2026-03-02T17:40:28.526592","MEAN_MOTION":1.00271256,"ECCENTRICITY":0.00022,"INCLINATION":0.0672,"RA_OF_ASC_NODE":27.343,"ARG_OF_PERICENTER":307.1895,"MEAN_ANOMALY":119.5608,"EPHEMERIS_TYPE":0,"CLASSIFICATION_TYPE":"U","NORAD_CAT_ID":39285,"ELEMENT_SET_NO":999,"REV_AT_EPOCH":4535,"BSTAR":0,"MEAN_MOTION_DOT":1.34e-6,"MEAN_MOTION_DDOT":0},{"OBJECT_NAME":"FM-6","OBJECT_ID":"2013-058A","EPOCH":"2026-03-02T16:59:09.987936","MEAN_MOTION":1.00270617,"ECCENTRICITY":0.0003055,"INCLINATION":0.0204,"RA_OF_ASC_NODE":131.035,"ARG_OF_PERICENTER":50.9706,"MEAN_ANOMALY":117.0839,"EPHEMERIS_TYPE":0,"CLASSIFICATION_TYPE":"U","NORAD_CAT_ID":39360,"ELEMENT_SET_NO":999,"REV_AT_EPOCH":4500,"BSTAR":0,"MEAN_MOTION_DOT":-3.3e-7,"MEAN_MOTION_DDOT":0},{"OBJECT_NAME":"RADUGA-1M 3","OBJECT_ID":"2013-062A","EPOCH":"2026-03-02T17:42:13.360032","MEAN_MOTION":1.00272357,"ECCENTRICITY":2.62e-5,"INCLINATION":5.6919,"RA_OF_ASC_NODE":73.7005,"ARG_OF_PERICENTER":248.5403,"MEAN_ANOMALY":138.8024,"EPHEMERIS_TYPE":0,"CLASSIFICATION_TYPE":"U","NORAD_CAT_ID":39375,"ELEMENT_SET_NO":999,"REV_AT_EPOCH":4504,"BSTAR":0,"MEAN_MOTION_DOT":1.39e-6,"MEAN_MOTION_DDOT":0},{"OBJECT_NAME":"SES-8","OBJECT_ID":"2013-071A","EPOCH":"2026-03-02T14:42:59.332608","MEAN_MOTION":1.00267709,"ECCENTRICITY":0.0001676,"INCLINATION":0.0622,"RA_OF_ASC_NODE":272.7609,"ARG_OF_PERICENTER":99.9747,"MEAN_ANOMALY":103.3736,"EPHEMERIS_TYPE":0,"CLASSIFICATION_TYPE":"U","NORAD_CAT_ID":39460,"ELEMENT_SET_NO":999,"REV_AT_EPOCH":4337,"BSTAR":0,"MEAN_MOTION_DOT":-2.85e-6,"MEAN_MOTION_DDOT":0},{"OBJECT_NAME":"INMARSAT 5-F1","OBJECT_ID":"2013-073A","EPOCH":"2026-03-02T14:54:46.780128","MEAN_MOTION":1.00270327,"ECCENTRICITY":6.56e-5,"INCLINATION":0.0177,"RA_OF_ASC_NODE":123.0331,"ARG_OF_PERICENTER":209.2148,"MEAN_ANOMALY":114.3969,"EPHEMERIS_TYPE":0,"CLASSIFICATION_TYPE":"U","NORAD_CAT_ID":39476,"ELEMENT_SET_NO":999,"REV_AT_EPOCH":4450,"BSTAR":0,"MEAN_MOTION_DOT":1.2e-7,"MEAN_MOTION_DDOT":0},{"OBJECT_NAME":"TKSAT-1 (TUPAC KATARI)","OBJECT_ID":"2013-075A","EPOCH":"2026-03-02T15:24:46.044576","MEAN_MOTION":1.00271747,"ECCENTRICITY":0.0002884,"INCLINATION":0.0342,"RA_OF_ASC_NODE":85.834,"ARG_OF_PERICENTER":248.5797,"MEAN_ANOMALY":329.9833,"EPHEMERIS_TYPE":0,"CLASSIFICATION_TYPE":"U","NORAD_CAT_ID":39481,"ELEMENT_SET_NO":999,"REV_AT_EPOCH":4453,"BSTAR":0,"MEAN_MOTION_DOT":-2.12e-6,"MEAN_MOTION_DDOT":0},{"OBJECT_NAME":"EXPRESS-AM5","OBJECT_ID":"2013-077A","EPOCH":"2026-03-02T20:50:46.389408","MEAN_MOTION":1.00269434,"ECCENTRICITY":0.0002481,"INCLINATION":0.0226,"RA_OF_ASC_NODE":155.6521,"ARG_OF_PERICENTER":172.9844,"MEAN_ANOMALY":284.744,"EPHEMERIS_TYPE":0,"CLASSIFICATION_TYPE":"U","NORAD_CAT_ID":39487,"ELEMENT_SET_NO":999,"REV_AT_EPOCH":4529,"BSTAR":0,"MEAN_MOTION_DOT":0,"MEAN_MOTION_DDOT":0}]
